{
  "type": "FeatureCollection",
  "features": [
    {
      "type": "Feature",
      "properties": {
        "province_id": 1,
        "province_name": "Bale",
        "region": "Boucle du Mouhoun"
      },
      "geometry": {
        "type": "Polygon",
        "coordinates": [
          [
            [
              -5.8,
              9.3
            ],
            [
              -4.95,
              9.3
            ],
            [
              -4.95,
              10.020000000000001
            ],
            [
              -5.8,
              10.020000000000001
            ],
            [
              -5.8,
              9.3
            ]
          ]
        ]
      }
    },
    {
      "type": "Feature",
      "properties": {
        "province_id": 2,
        "province_name": "Banwa",
        "region": "Boucle du Mouhoun"
      },
      "geometry": {
        "type": "Polygon",
        "coordinates": [
          [
            [
              -4.91,
              9.3
            ],
            [
              -4.0600000000000005,
              9.3
            ],
            [
              -4.0600000000000005,
              10.020000000000001
            ],
            [
              -4.91,
              10.020000000000001
            ],
            [
              -4.91,
              9.3
            ]
          ]
        ]
      }
    },
    {
      "type": "Feature",
      "properties": {
        "province_id": 3,
        "province_name": "Kossi",
        "region": "Boucle du Mouhoun"
      },
      "geometry": {
        "type": "Polygon",
        "coordinates": [
          [
            [
              -4.02,
              9.3
            ],
            [
              -3.1699999999999995,
              9.3
            ],
            [
              -3.1699999999999995,
              10.020000000000001
            ],
            [
              -4.02,
              10.020000000000001
            ],
            [
              -4.02,
              9.3
            ]
          ]
        ]
      }
    },
    {
      "type": "Feature",
      "properties": {
        "province_id": 4,
        "province_name": "Mouhoun",
        "region": "Boucle du Mouhoun"
      },
      "geometry": {
        "type": "Polygon",
        "coordinates": [
          [
            [
              -3.13,
              9.3
            ],
            [
              -2.28,
              9.3
            ],
            [
              -2.28,
              10.020000000000001
            ],
            [
              -3.13,
              10.020000000000001
            ],
            [
              -3.13,
              9.3
            ]
          ]
        ]
      }
    },
    {
      "type": "Feature",
      "properties": {
        "province_id": 5,
        "province_name": "Nayala",
        "region": "Boucle du Mouhoun"
      },
      "geometry": {
        "type": "Polygon",
        "coordinates": [
          [
            [
              -2.2399999999999998,
              9.3
            ],
            [
              -1.3899999999999997,
              9.3
            ],
            [
              -1.3899999999999997,
              10.020000000000001
            ],
            [
              -2.2399999999999998,
              10.020000000000001
            ],
            [
              -2.2399999999999998,
              9.3
            ]
          ]
        ]
      }
    },
    {
      "type": "Feature",
      "properties": {
        "province_id": 6,
        "province_name": "Sourou",
        "region": "Boucle du Mouhoun"
      },
      "geometry": {
        "type": "Polygon",
        "coordinates": [
          [
            [
              -1.3499999999999996,
              9.3
            ],
            [
              -0.49999999999999967,
              9.3
            ],
            [
              -0.49999999999999967,
              10.020000000000001
            ],
            [
              -1.3499999999999996,
              10.020000000000001
            ],
            [
              -1.3499999999999996,
              9.3
            ]
          ]
        ]
      }
    },
    {
      "type": "Feature",
      "properties": {
        "province_id": 7,
        "province_name": "Comoe",
        "region": "Cascades"
      },
      "geometry": {
        "type": "Polygon",
        "coordinates": [
          [
            [
              -0.45999999999999996,
              9.3
            ],
            [
              0.39,
              9.3
            ],
            [
              0.39,
              10.020000000000001
            ],
            [
              -0.45999999999999996,
              10.020000000000001
            ],
            [
              -0.45999999999999996,
              9.3
            ]
          ]
        ]
      }
    },
    {
      "type": "Feature",
      "properties": {
        "province_id": 8,
        "province_name": "Leraba",
        "region": "Cascades"
      },
      "geometry": {
        "type": "Polygon",
        "coordinates": [
          [
            [
              0.4300000000000006,
              9.3
            ],
            [
              1.2800000000000007,
              9.3
            ],
            [
              1.2800000000000007,
              10.020000000000001
            ],
            [
              0.4300000000000006,
              10.020000000000001
            ],
            [
              0.4300000000000006,
              9.3
            ]
          ]
        ]
      }
    },
    {
      "type": "Feature",
      "properties": {
        "province_id": 9,
        "province_name": "Kouritenga",
        "region": "Centre-Est"
      },
      "geometry": {
        "type": "Polygon",
        "coordinates": [
          [
            [
              1.3200000000000003,
              9.3
            ],
            [
              2.1700000000000004,
              9.3
            ],
            [
              2.1700000000000004,
              10.020000000000001
            ],
            [
              1.3200000000000003,
              10.020000000000001
            ],
            [
              1.3200000000000003,
              9.3
            ]
          ]
        ]
      }
    },
    {
      "type": "Feature",
      "properties": {
        "province_id": 10,
        "province_name": "Koulpelogo",
        "region": "Centre-Est"
      },
      "geometry": {
        "type": "Polygon",
        "coordinates": [
          [
            [
              -5.8,
              10.06
            ],
            [
              -4.95,
              10.06
            ],
            [
              -4.95,
              10.780000000000001
            ],
            [
              -5.8,
              10.780000000000001
            ],
            [
              -5.8,
              10.06
            ]
          ]
        ]
      }
    },
    {
      "type": "Feature",
      "properties": {
        "province_id": 11,
        "province_name": "Boulgou",
        "region": "Centre-Est"
      },
      "geometry": {
        "type": "Polygon",
        "coordinates": [
          [
            [
              -4.91,
              10.06
            ],
            [
              -4.0600000000000005,
              10.06
            ],
            [
              -4.0600000000000005,
              10.780000000000001
            ],
            [
              -4.91,
              10.780000000000001
            ],
            [
              -4.91,
              10.06
            ]
          ]
        ]
      }
    },
    {
      "type": "Feature",
      "properties": {
        "province_id": 12,
        "province_name": "Kadiogo",
        "region": "Centre"
      },
      "geometry": {
        "type": "Polygon",
        "coordinates": [
          [
            [
              -4.02,
              10.06
            ],
            [
              -3.1699999999999995,
              10.06
            ],
            [
              -3.1699999999999995,
              10.780000000000001
            ],
            [
              -4.02,
              10.780000000000001
            ],
            [
              -4.02,
              10.06
            ]
          ]
        ]
      }
    },
    {
      "type": "Feature",
      "properties": {
        "province_id": 13,
        "province_name": "Bam",
        "region": "Centre-Nord"
      },
      "geometry": {
        "type": "Polygon",
        "coordinates": [
          [
            [
              -3.13,
              10.06
            ],
            [
              -2.28,
              10.06
            ],
            [
              -2.28,
              10.780000000000001
            ],
            [
              -3.13,
              10.780000000000001
            ],
            [
              -3.13,
              10.06
            ]
          ]
        ]
      }
    },
    {
      "type": "Feature",
      "properties": {
        "province_id": 14,
        "province_name": "Namentenga",
        "region": "Centre-Nord"
      },
      "geometry": {
        "type": "Polygon",
        "coordinates": [
          [
            [
              -2.2399999999999998,
              10.06
            ],
            [
              -1.3899999999999997,
              10.06
            ],
            [
              -1.3899999999999997,
              10.780000000000001
            ],
            [
              -2.2399999999999998,
              10.780000000000001
            ],
            [
              -2.2399999999999998,
              10.06
            ]
          ]
        ]
      }
    },
    {
      "type": "Feature",
      "properties": {
        "province_id": 15,
        "province_name": "Sanmatenga",
        "region": "Centre-Nord"
      },
      "geometry": {
        "type": "Polygon",
        "coordinates": [
          [
            [
              -1.3499999999999996,
              10.06
            ],
            [
              -0.49999999999999967,
              10.06
            ],
            [
              -0.49999999999999967,
              10.780000000000001
            ],
            [
              -1.3499999999999996,
              10.780000000000001
            ],
            [
              -1.3499999999999996,
              10.06
            ]
          ]
        ]
      }
    },
    {
      "type": "Feature",
      "properties": {
        "province_id": 16,
        "province_name": "Boulkiemde",
        "region": "Centre-Ouest"
      },
      "geometry": {
        "type": "Polygon",
        "coordinates": [
          [
            [
              -0.45999999999999996,
              10.06
            ],
            [
              0.39,
              10.06
            ],
            [
              0.39,
              10.780000000000001
            ],
            [
              -0.45999999999999996,
              10.780000000000001
            ],
            [
              -0.45999999999999996,
              10.06
            ]
          ]
        ]
      }
    },
    {
      "type": "Feature",
      "properties": {
        "province_id": 17,
        "province_name": "Sanguie",
        "region": "Centre-Ouest"
      },
      "geometry": {
        "type": "Polygon",
        "coordinates": [
          [
            [
              0.4300000000000006,
              10.06
            ],
            [
              1.2800000000000007,
              10.06
            ],
            [
              1.2800000000000007,
              10.780000000000001
            ],
            [
              0.4300000000000006,
              10.780000000000001
            ],
            [
              0.4300000000000006,
              10.06
            ]
          ]
        ]
      }
    },
    {
      "type": "Feature",
      "properties": {
        "province_id": 18,
        "province_name": "Sissili",
        "region": "Centre-Ouest"
      },
      "geometry": {
        "type": "Polygon",
        "coordinates": [
          [
            [
              1.3200000000000003,
              10.06
            ],
            [
              2.1700000000000004,
              10.06
            ],
            [
              2.1700000000000004,
              10.780000000000001
            ],
            [
              1.3200000000000003,
              10.780000000000001
            ],
            [
              1.3200000000000003,
              10.06
            ]
          ]
        ]
      }
    },
    {
      "type": "Feature",
      "properties": {
        "province_id": 19,
        "province_name": "Ziro",
        "region": "Centre-Ouest"
      },
      "geometry": {
        "type": "Polygon",
        "coordinates": [
          [
            [
              -5.8,
              10.82
            ],
            [
              -4.95,
              10.82
            ],
            [
              -4.95,
              11.540000000000001
            ],
            [
              -5.8,
              11.540000000000001
            ],
            [
              -5.8,
              10.82
            ]
          ]
        ]
      }
    },
    {
      "type": "Feature",
      "properties": {
        "province_id": 20,
        "province_name": "Nahouri",
        "region": "Centre-Sud"
      },
      "geometry": {
        "type": "Polygon",
        "coordinates": [
          [
            [
              -4.91,
              10.82
            ],
            [
              -4.0600000000000005,
              10.82
            ],
            [
              -4.0600000000000005,
              11.540000000000001
            ],
            [
              -4.91,
              11.540000000000001
            ],
            [
              -4.91,
              10.82
            ]
          ]
        ]
      }
    },
    {
      "type": "Feature",
      "properties": {
        "province_id": 21,
        "province_name": "Zoundweogo",
        "region": "Centre-Sud"
      },
      "geometry": {
        "type": "Polygon",
        "coordinates": [
          [
            [
              -4.02,
              10.82
            ],
            [
              -3.1699999999999995,
              10.82
            ],
            [
              -3.1699999999999995,
              11.540000000000001
            ],
            [
              -4.02,
              11.540000000000001
            ],
            [
              -4.02,
              10.82
            ]
          ]
        ]
      }
    },
    {
      "type": "Feature",
      "properties": {
        "province_id": 22,
        "province_name": "Bazega",
        "region": "Centre-Sud"
      },
      "geometry": {
        "type": "Polygon",
        "coordinates": [
          [
            [
              -3.13,
              10.82
            ],
            [
              -2.28,
              10.82
            ],
            [
              -2.28,
              11.540000000000001
            ],
            [
              -3.13,
              11.540000000000001
            ],
            [
              -3.13,
              10.82
            ]
          ]
        ]
      }
    },
    {
      "type": "Feature",
      "properties": {
        "province_id": 23,
        "province_name": "Gnagna",
        "region": "Est"
      },
      "geometry": {
        "type": "Polygon",
        "coordinates": [
          [
            [
              -2.2399999999999998,
              10.82
            ],
            [
              -1.3899999999999997,
              10.82
            ],
            [
              -1.3899999999999997,
              11.540000000000001
            ],
            [
              -2.2399999999999998,
              11.540000000000001
            ],
            [
              -2.2399999999999998,
              10.82
            ]
          ]
        ]
      }
    },
    {
      "type": "Feature",
      "properties": {
        "province_id": 24,
        "province_name": "Gourma",
        "region": "Est"
      },
      "geometry": {
        "type": "Polygon",
        "coordinates": [
          [
            [
              -1.3499999999999996,
              10.82
            ],
            [
              -0.49999999999999967,
              10.82
            ],
            [
              -0.49999999999999967,
              11.540000000000001
            ],
            [
              -1.3499999999999996,
              11.540000000000001
            ],
            [
              -1.3499999999999996,
              10.82
            ]
          ]
        ]
      }
    },
    {
      "type": "Feature",
      "properties": {
        "province_id": 25,
        "province_name": "Kompienga",
        "region": "Est"
      },
      "geometry": {
        "type": "Polygon",
        "coordinates": [
          [
            [
              -0.45999999999999996,
              10.82
            ],
            [
              0.39,
              10.82
            ],
            [
              0.39,
              11.540000000000001
            ],
            [
              -0.45999999999999996,
              11.540000000000001
            ],
            [
              -0.45999999999999996,
              10.82
            ]
          ]
        ]
      }
    },
    {
      "type": "Feature",
      "properties": {
        "province_id": 26,
        "province_name": "Komondjari",
        "region": "Est"
      },
      "geometry": {
        "type": "Polygon",
        "coordinates": [
          [
            [
              0.4300000000000006,
              10.82
            ],
            [
              1.2800000000000007,
              10.82
            ],
            [
              1.2800000000000007,
              11.540000000000001
            ],
            [
              0.4300000000000006,
              11.540000000000001
            ],
            [
              0.4300000000000006,
              10.82
            ]
          ]
        ]
      }
    },
    {
      "type": "Feature",
      "properties": {
        "province_id": 27,
        "province_name": "Tapoa",
        "region": "Est"
      },
      "geometry": {
        "type": "Polygon",
        "coordinates": [
          [
            [
              1.3200000000000003,
              10.82
            ],
            [
              2.1700000000000004,
              10.82
            ],
            [
              2.1700000000000004,
              11.540000000000001
            ],
            [
              1.3200000000000003,
              11.540000000000001
            ],
            [
              1.3200000000000003,
              10.82
            ]
          ]
        ]
      }
    },
    {
      "type": "Feature",
      "properties": {
        "province_id": 28,
        "province_name": "Houet",
        "region": "Hauts-Bassins"
      },
      "geometry": {
        "type": "Polygon",
        "coordinates": [
          [
            [
              -5.8,
              11.580000000000002
            ],
            [
              -4.95,
              11.580000000000002
            ],
            [
              -4.95,
              12.300000000000002
            ],
            [
              -5.8,
              12.300000000000002
            ],
            [
              -5.8,
              11.580000000000002
            ]
          ]
        ]
      }
    },
    {
      "type": "Feature",
      "properties": {
        "province_id": 29,
        "province_name": "Kenedougou",
        "region": "Hauts-Bassins"
      },
      "geometry": {
        "type": "Polygon",
        "coordinates": [
          [
            [
              -4.91,
              11.580000000000002
            ],
            [
              -4.0600000000000005,
              11.580000000000002
            ],
            [
              -4.0600000000000005,
              12.300000000000002
            ],
            [
              -4.91,
              12.300000000000002
            ],
            [
              -4.91,
              11.580000000000002
            ]
          ]
        ]
      }
    },
    {
      "type": "Feature",
      "properties": {
        "province_id": 30,
        "province_name": "Tuy",
        "region": "Hauts-Bassins"
      },
      "geometry": {
        "type": "Polygon",
        "coordinates": [
          [
            [
              -4.02,
              11.580000000000002
            ],
            [
              -3.1699999999999995,
              11.580000000000002
            ],
            [
              -3.1699999999999995,
              12.300000000000002
            ],
            [
              -4.02,
              12.300000000000002
            ],
            [
              -4.02,
              11.580000000000002
            ]
          ]
        ]
      }
    },
    {
      "type": "Feature",
      "properties": {
        "province_id": 31,
        "province_name": "Loroum",
        "region": "Nord"
      },
      "geometry": {
        "type": "Polygon",
        "coordinates": [
          [
            [
              -3.13,
              11.580000000000002
            ],
            [
              -2.28,
              11.580000000000002
            ],
            [
              -2.28,
              12.300000000000002
            ],
            [
              -3.13,
              12.300000000000002
            ],
            [
              -3.13,
              11.580000000000002
            ]
          ]
        ]
      }
    },
    {
      "type": "Feature",
      "properties": {
        "province_id": 32,
        "province_name": "Passore",
        "region": "Nord"
      },
      "geometry": {
        "type": "Polygon",
        "coordinates": [
          [
            [
              -2.2399999999999998,
              11.580000000000002
            ],
            [
              -1.3899999999999997,
              11.580000000000002
            ],
            [
              -1.3899999999999997,
              12.300000000000002
            ],
            [
              -2.2399999999999998,
              12.300000000000002
            ],
            [
              -2.2399999999999998,
              11.580000000000002
            ]
          ]
        ]
      }
    },
    {
      "type": "Feature",
      "properties": {
        "province_id": 33,
        "province_name": "Yatenga",
        "region": "Nord"
      },
      "geometry": {
        "type": "Polygon",
        "coordinates": [
          [
            [
              -1.3499999999999996,
              11.580000000000002
            ],
            [
              -0.49999999999999967,
              11.580000000000002
            ],
            [
              -0.49999999999999967,
              12.300000000000002
            ],
            [
              -1.3499999999999996,
              12.300000000000002
            ],
            [
              -1.3499999999999996,
              11.580000000000002
            ]
          ]
        ]
      }
    },
    {
      "type": "Feature",
      "properties": {
        "province_id": 34,
        "province_name": "Zondoma",
        "region": "Nord"
      },
      "geometry": {
        "type": "Polygon",
        "coordinates": [
          [
            [
              -0.45999999999999996,
              11.580000000000002
            ],
            [
              0.39,
              11.580000000000002
            ],
            [
              0.39,
              12.300000000000002
            ],
            [
              -0.45999999999999996,
              12.300000000000002
            ],
            [
              -0.45999999999999996,
              11.580000000000002
            ]
          ]
        ]
      }
    },
    {
      "type": "Feature",
      "properties": {
        "province_id": 35,
        "province_name": "Ganzourgou",
        "region": "Plateau-Central"
      },
      "geometry": {
        "type": "Polygon",
        "coordinates": [
          [
            [
              0.4300000000000006,
              11.580000000000002
            ],
            [
              1.2800000000000007,
              11.580000000000002
            ],
            [
              1.2800000000000007,
              12.300000000000002
            ],
            [
              0.4300000000000006,
              12.300000000000002
            ],
            [
              0.4300000000000006,
              11.580000000000002
            ]
          ]
        ]
      }
    },
    {
      "type": "Feature",
      "properties": {
        "province_id": 36,
        "province_name": "Kourweogo",
        "region": "Plateau-Central"
      },
      "geometry": {
        "type": "Polygon",
        "coordinates": [
          [
            [
              1.3200000000000003,
              11.580000000000002
            ],
            [
              2.1700000000000004,
              11.580000000000002
            ],
            [
              2.1700000000000004,
              12.300000000000002
            ],
            [
              1.3200000000000003,
              12.300000000000002
            ],
            [
              1.3200000000000003,
              11.580000000000002
            ]
          ]
        ]
      }
    },
    {
      "type": "Feature",
      "properties": {
        "province_id": 37,
        "province_name": "Oubritenga",
        "region": "Plateau-Central"
      },
      "geometry": {
        "type": "Polygon",
        "coordinates": [
          [
            [
              -5.8,
              12.34
            ],
            [
              -4.95,
              12.34
            ],
            [
              -4.95,
              13.06
            ],
            [
              -5.8,
              13.06
            ],
            [
              -5.8,
              12.34
            ]
          ]
        ]
      }
    },
    {
      "type": "Feature",
      "properties": {
        "province_id": 38,
        "province_name": "Oudalan",
        "region": "Sahel"
      },
      "geometry": {
        "type": "Polygon",
        "coordinates": [
          [
            [
              -4.91,
              12.34
            ],
            [
              -4.0600000000000005,
              12.34
            ],
            [
              -4.0600000000000005,
              13.06
            ],
            [
              -4.91,
              13.06
            ],
            [
              -4.91,
              12.34
            ]
          ]
        ]
      }
    },
    {
      "type": "Feature",
      "properties": {
        "province_id": 39,
        "province_name": "Seno",
        "region": "Sahel"
      },
      "geometry": {
        "type": "Polygon",
        "coordinates": [
          [
            [
              -4.02,
              12.34
            ],
            [
              -3.1699999999999995,
              12.34
            ],
            [
              -3.1699999999999995,
              13.06
            ],
            [
              -4.02,
              13.06
            ],
            [
              -4.02,
              12.34
            ]
          ]
        ]
      }
    },
    {
      "type": "Feature",
      "properties": {
        "province_id": 40,
        "province_name": "Soum",
        "region": "Sahel"
      },
      "geometry": {
        "type": "Polygon",
        "coordinates": [
          [
            [
              -3.13,
              12.34
            ],
            [
              -2.28,
              12.34
            ],
            [
              -2.28,
              13.06
            ],
            [
              -3.13,
              13.06
            ],
            [
              -3.13,
              12.34
            ]
          ]
        ]
      }
    },
    {
      "type": "Feature",
      "properties": {
        "province_id": 41,
        "province_name": "Yagha",
        "region": "Sahel"
      },
      "geometry": {
        "type": "Polygon",
        "coordinates": [
          [
            [
              -2.2399999999999998,
              12.34
            ],
            [
              -1.3899999999999997,
              12.34
            ],
            [
              -1.3899999999999997,
              13.06
            ],
            [
              -2.2399999999999998,
              13.06
            ],
            [
              -2.2399999999999998,
              12.34
            ]
          ]
        ]
      }
    },
    {
      "type": "Feature",
      "properties": {
        "province_id": 42,
        "province_name": "Bougouriba",
        "region": "Sud-Ouest"
      },
      "geometry": {
        "type": "Polygon",
        "coordinates": [
          [
            [
              -1.3499999999999996,
              12.34
            ],
            [
              -0.49999999999999967,
              12.34
            ],
            [
              -0.49999999999999967,
              13.06
            ],
            [
              -1.3499999999999996,
              13.06
            ],
            [
              -1.3499999999999996,
              12.34
            ]
          ]
        ]
      }
    },
    {
      "type": "Feature",
      "properties": {
        "province_id": 43,
        "province_name": "Ioba",
        "region": "Sud-Ouest"
      },
      "geometry": {
        "type": "Polygon",
        "coordinates": [
          [
            [
              -0.45999999999999996,
              12.34
            ],
            [
              0.39,
              12.34
            ],
            [
              0.39,
              13.06
            ],
            [
              -0.45999999999999996,
              13.06
            ],
            [
              -0.45999999999999996,
              12.34
            ]
          ]
        ]
      }
    },
    {
      "type": "Feature",
      "properties": {
        "province_id": 44,
        "province_name": "Noumbiel",
        "region": "Sud-Ouest"
      },
      "geometry": {
        "type": "Polygon",
        "coordinates": [
          [
            [
              0.4300000000000006,
              12.34
            ],
            [
              1.2800000000000007,
              12.34
            ],
            [
              1.2800000000000007,
              13.06
            ],
            [
              0.4300000000000006,
              13.06
            ],
            [
              0.4300000000000006,
              12.34
            ]
          ]
        ]
      }
    },
    {
      "type": "Feature",
      "properties": {
        "province_id": 45,
        "province_name": "Poni",
        "region": "Sud-Ouest"
      },
      "geometry": {
        "type": "Polygon",
        "coordinates": [
          [
            [
              1.3200000000000003,
              12.34
            ],
            [
              2.1700000000000004,
              12.34
            ],
            [
              2.1700000000000004,
              13.06
            ],
            [
              1.3200000000000003,
              13.06
            ],
            [
              1.3200000000000003,
              12.34
            ]
          ]
        ]
      }
    }
  ]
}